NORAD_ID,Epoch_Time,Inclination_deg,RA_of_Asc_Node_deg,Eccentricity_e,Arg_of_Perigee_deg,Mean_Anomaly_deg,BSTAR,Mean_Motion_rev_day,TLE_Line_1,TLE_Line_2
43152,33:48.4,97.4011,343.0321,0.0001822,93.4407,266.7038,2.46E-05,15.22416539,1 43152U 18007A   25338.10681051  .00000499  00000-0  24567-4 0  9994,2 43152  97.4011 343.0321 0001822  93.4407 266.7038 15.22416539437739
43152,08:27.3,97.4009,343.097,0.0001779,90.8659,269.2782,1.10E-06,15.22423158,1 43152U 18007A   25338.17253764 -.00000043  00000-0  10958-5 0  9993,2 43152  97.4009 343.0970 0001779  90.8659 269.2782 15.22423158437747
43152,17:44.8,97.4015,343.2261,0.0001821,89.2724,270.8721,1.09E-06,15.22425481,1 43152U 18007A   25338.30399117 -.00000043  00000-0  10940-5 0  9992,2 43152  97.4015 343.2261 0001821  89.2724 270.8721 15.22425481437766
43152,27:02.4,97.4016,343.3556,0.0001824,88.1945,271.95,1.09E-06,15.22426266,1 43152U 18007A   25338.43544458 -.00000043  00000-0  10890-5 0  9990,2 43152  97.4016 343.3556 0001824  88.1945 271.9500 15.22426266437782
43152,10:57.8,97.4003,343.5507,0.0001705,95.6025,264.5406,0.00021206,15.22468697,1 43152U 18007A   25338.63261381  .00004839  00000-0  21206-3 0  9990,2 43152  97.4003 343.5507 0001705  95.6025 264.5406 15.22468697437817
43152,54:53.2,97.4009,343.7441,0.0001708,84.3444,275.7988,0.00055152,15.22443842,1 43152U 18007A   25338.82978284  .00012700  00000-0  55152-3 0  9991,2 43152  97.4009 343.7441 0001708  84.3444 275.7988 15.22443842437842
43159,34:33.8,97.1937,358.4377,0.0010299,47.1016,313.1089,0.00048717,15.30984627,1 43159U 18008E   25337.98233567  .00014545  00000-0  48717-3 0  9991,2 43159  97.1937 358.4377 0010299  47.1016 313.1089 15.30984627435098
43159,42:48.0,97.1936,358.5644,0.0010285,46.6913,313.5185,0.0004986,15.3098842,1 43159U 18008E   25338.11305510  .00014890  00000-0  49860-3 0  9998,2 43159  97.1936 358.5644 0010285  46.6913 313.5185 15.30988420435119
43159,25:09.1,97.1935,358.7545,0.0010264,46.0644,314.1443,0.00056423,15.30996078,1 43159U 18008E   25338.30913325  .00016868  00000-0  56423-3 0  9998,2 43159  97.1935 358.7545 0010264  46.0644 314.1443 15.30996078435147
43159,15:44.2,97.1934,359.0713,0.0010237,45.0816,315.1255,0.00054243,15.31005729,1 43159U 18008E   25338.63592877  .00016217  00000-0  54243-3 0  9995,2 43159  97.1934 359.0713 0010237  45.0816 315.1255 15.31005729435199
43159,49:51.3,97.1934,359.1347,0.0010232,44.8732,315.3335,0.00054036,15.3100756,1 43159U 18008E   25338.70128764  .00016155  00000-0  54036-3 0  9994,2 43159  97.1934 359.1347 0010232  44.8732 315.3335 15.31007560435200
43159,58:05.2,97.1933,359.2614,0.0010214,44.4894,315.7166,0.00053891,15.31011591,1 43159U 18008E   25338.83200505  .00016114  00000-0  53891-3 0  9995,2 43159  97.1933 359.2614 0010214  44.4894 315.7166 15.31011591435229
43160,16:45.0,97.1957,357.9438,0.0008157,60.9795,299.2262,0.00038661,15.303315,1 43160U 18008F   25338.01163204  .00011285  00000-0  38661-3 0  9993,2 43160  97.1957 357.9438 0008157  60.9795 299.2262 15.30331500435061
43160,25:04.0,97.1956,358.0705,0.0008145,60.6921,299.5133,0.00040616,15.30334959,1 43160U 18008F   25338.14240727  .00011861  00000-0  40616-3 0  9996,2 43160  97.1956 358.0705 0008145  60.6921 299.5133 15.30334959435087
43160,33:22.9,97.1956,358.1972,0.0008136,60.385,299.8201,0.00041415,15.30337986,1 43160U 18008F   25338.27318219  .00012097  00000-0  41415-3 0  9992,2 43160  97.1956 358.1972 0008136  60.3850 299.8201 15.30337986435107
43160,24:10.3,97.1955,358.514,0.0008114,59.4186,300.7854,0.00041537,15.30344751,1 43160U 18008F   25338.60011867  .00012136  00000-0  41537-3 0  9997,2 43160  97.1955 358.5140 0008114  59.4186 300.7854 15.30344751435153
43160,58:19.7,97.1955,358.5773,0.0008111,59.2675,300.9364,0.00041694,15.30346359,1 43160U 18008F   25338.66550569  .00012183  00000-0  41694-3 0  9996,2 43160  97.1955 358.5773 0008111  59.2675 300.9364 15.30346359435168
43160,06:38.6,97.1954,358.704,0.0008108,58.8788,301.3247,0.00039868,15.30348597,1 43160U 18008F   25338.79627976  .00011646  00000-0  39868-3 0  9990,2 43160  97.1954 358.7040 0008108  58.8788 301.3247 15.30348597435185
43161,17:04.5,98.2258,327.304,0.0362767,312.9618,44.1663,0.00046818,14.32029729,1 43161U 18008G   25337.97019042  .00002558  00000-0  46818-3 0  9994,2 43161  98.2258 327.3040 0362767 312.9618  44.1663 14.32029729410728
43161,17:04.5,98.2259,327.304,0.0362764,312.9617,44.1665,0.00046903,14.32029746,1 43161U 18008G   25337.97019042  .00002563  00000-0  46903-3 0  9995,2 43161  98.2259 327.3040 0362764 312.9617  44.1665 14.32029746410726
43161,59:31.3,98.2259,327.5698,0.0362741,312.124,44.9633,0.00048717,14.32031461,1 43161U 18008G   25338.24966789  .00002664  00000-0  48717-3 0  9992,2 43161  98.2259 327.5698 0362741 312.1240  44.9633 14.32031461410760
43161,22:34.9,98.2259,327.9019,0.0362725,311.0777,45.9591,0.00046979,14.32032809,1 43161U 18008G   25338.59901484  .00002567  00000-0  46979-3 0  9991,2 43161  98.2259 327.9019 0362725 311.0777  45.9591 14.32032809410813
43161,22:34.9,98.2259,327.9019,0.0362725,311.0777,45.9591,0.00046979,14.32032809,1 43161U 18008G   25338.59901484  .00002567  00000-0  46979-3 0  9991,2 43161  98.2259 327.9019 0362725 311.0777  45.9591 14.32032809410813
43162,27:38.8,2.0922,2.0947,0.0002484,250.9044,282.3267,0,1.00271396,1 43162U 18009A   25337.72753242  .00000144  00000-0  00000-0 0  9995,2 43162   2.0922   2.0947 0002484 250.9044 282.3267  1.00271396 28882
43162,16:15.9,2.0918,2.1133,0.000249,251.0604,9.5451,0,1.00271515,1 43162U 18009A   25337.96962887  .00000143  00000-0  00000+0 0  9996,2 43162   2.0918   2.1133 0002490 251.0604   9.5451  1.00271515 28883
43162,07:14.9,2.0924,2.1312,0.0002502,252.8725,110.7402,0,1.0027083,1 43162U 18009A   25338.25503339  .00000142  00000-0  00000-0 0  9992,2 43162   2.0924   2.1312 0002502 252.8725 110.7402  1.00270830 28897
43162,19:38.6,2.092,2.1441,0.0002516,253.4011,218.5924,0,1.00270668,1 43162U 18009A   25338.55530840  .00000141  00000-0  00000+0 0  9990,2 43162   2.0920   2.1441 0002516 253.4011 218.5924  1.00270668 28891
43162,19:38.6,2.092,2.1441,0.0002516,253.4011,218.5924,0,1.00270668,1 43162U 18009A   25338.55530841  .00000141  00000-0  00000-0 0  9992,2 43162   2.0920   2.1441 0002516 253.4011 218.5924  1.00270668 28891
43162,06:16.9,2.0924,2.1609,0.0002508,253.0216,290.8109,0,1.00271119,1 43162U 18009A   25338.75436281  .00000140  00000-0  00000+0 0  9995,2 43162   2.0924   2.1609 0002508 253.0216 290.8109  1.00271119 28895
43169,36:44.9,34.9965,266.8258,0.0002005,172.188,187.8859,0.000466,14.99858138,1 43169U 18011A   25338.10885282  .00005865  00000-0  46600-3 0  9992,2 43169  34.9965 266.8258 0002005 172.1880 187.8859 14.99858138428806
43169,12:36.1,34.9965,266.4219,0.0002015,172.7125,187.3612,0.0004992,14.99860151,1 43169U 18011A   25338.17541777  .00006286  00000-0  49920-3 0  9993,2 43169  34.9965 266.4219 0002015 172.7125 187.3612 14.99860151428819
43169,11:52.3,34.9965,264.4023,0.0002056,175.9933,184.0791,0.0004877,14.99863172,1 43169U 18011A   25338.50824458  .00006141  00000-0  48770-3 0  9992,2 43169  34.9965 264.4023 0002056 175.9933 184.0791 14.99863172428860
43169,11:52.3,34.9965,264.4023,0.0002056,175.9933,184.0791,0.0004877,14.99863172,1 43169U 18011A   25338.50824459  .00006141  00000-0  48770-3 0  9993,2 43169  34.9965 264.4023 0002056 175.9933 184.0791 14.99863172428860
43170,06:12.2,34.9966,259.7827,0.0002641,37.733,322.3563,0.00052222,15.01447698,1 43170U 18011B   25337.96264109  .00006859  00000-0  52222-3 0  9997,2 43170  34.9966 259.7827 0002641  37.7330 322.3563 15.01447698428777
43170,53:27.7,34.9966,258.569,0.0002607,39.8026,320.2872,0.0005567,15.01449834,1 43170U 18011B   25338.16212603  .00007315  00000-0  55670-3 0  9990,2 43170  34.9966 258.5690 0002607  39.8026 320.2872 15.01449834428807
43170,29:12.8,34.9966,258.1645,0.00026,40.6756,319.4146,0.00056498,15.01450855,1 43170U 18011B   25338.22862088  .00007425  00000-0  56498-3 0  9996,2 43170  34.9966 258.1645 0002600  40.6756 319.4146 15.01450855428816
43170,52:13.4,34.9966,256.5465,0.0002569,43.7685,316.3227,0.00059864,15.01455717,1 43170U 18011B   25338.49459922  .00007870  00000-0  59864-3 0  9998,2 43170  34.9966 256.5465 0002569  43.7685 316.3227 15.01455717428859
43170,15:13.9,34.9964,254.9286,0.0002551,46.7728,313.3193,0.00057115,15.01458674,1 43170U 18011B   25338.76057738  .00007507  00000-0  57115-3 0  9991,2 43170  34.9964 254.9286 0002551  46.7728 313.3193 15.01458674428890
43170,26:44.1,34.9963,254.1197,0.0002532,48.1021,311.9902,0.00057094,15.0146058,1 43170U 18011B   25338.89356611  .00007505  00000-0  57094-3 0  9991,2 43170  34.9963 254.1197 0002532  48.1021 311.9902 15.01460580428917
43171,56:41.3,34.9958,259.5721,7.92E-05,33.5297,326.5461,0.00048985,15.01469263,1 43171U 18011C   25337.95603363  .00006435  00000-0  48985-3 0  9997,2 43171  34.9958 259.5721 0000792  33.5297 326.5461 15.01469263428844
43171,43:56.5,34.9958,258.3589,7.87E-05,36.4048,323.6714,0.00052278,15.01471429,1 43171U 18011C   25338.15551554  .00006871  00000-0  52278-3 0  9998,2 43171  34.9958 258.3589 0000787  36.4048 323.6714 15.01471429428872
43171,19:41.6,34.9957,257.9543,7.86E-05,39.3168,320.7597,0.00053011,15.0147249,1 43171U 18011C   25338.22200929  .00006968  00000-0  53011-3 0  9996,2 43171  34.9957 257.9543 0000786  39.3168 320.7597 15.01472490428887
43171,05:41.9,34.9955,254.718,6.95E-05,48.7997,311.2771,0.00056526,15.01481091,1 43171U 18011C   25338.75395721  .00007434  00000-0  56526-3 0  9992,2 43171  34.9955 254.7180 0000695  48.7997 311.2771 15.01481091428965
43171,17:11.9,34.9956,253.9089,6.65E-05,49.0743,311.0022,0.00056553,15.0148303,1 43171U 18011C   25338.88694381  .00007438  00000-0  56553-3 0  9994,2 43171  34.9956 253.9089 0000665  49.0743 311.0022 15.01483030428989
